ARIANE 5 R/B            
1 28499U 04049H   26050.44300526  .00000798  00000+0  94271-4 0  9996
2 28499  98.2595 218.2208 0085137  50.8125 310.0611 14.85228489143089
CZ-2D R/B               
1 28738U 05024B   26050.48341971  .00034292  00000+0  44970-3 0  9995
2 28738  97.3604  64.9855 0007631  90.1865 270.0266 15.58456206136940
ALOS (DAICHI)           
1 28931U 06002A   26050.46215522  .00001317  00000+0  22917-3 0  9996
2 28931  98.1190   6.5137 0001663  55.9972 304.1392 14.69745774 70809
H-2A R/B                
1 28932U 06002B   26050.39441784  .00007618  00000+0  38701-3 0  9998
2 28932  98.2381 195.8556 0052159 304.1949  55.4343 15.16018384 91661
RESURS-DK 1             
1 29228U 06021A   26050.08608281  .00001852  00000+0  11189-3 0  9996
2 29228  69.9323 285.1457 0003368 186.4773 173.6350 15.12628493 84711
CZ-4B R/B               
1 29507U 06046C   26050.46741229  .00004718  00000+0  24120-3 0  9998
2 29507  97.5628  95.4241 0032576 333.2403  26.7148 15.16699308 57286
CZ-2C R/B               
1 31114U 07010B   26050.26793411  .00000106  00000+0  67861-4 0  9992
2 31114  98.3971 164.4711 0058639 348.9196  11.0686 14.20239309977103
COSMO-SKYMED 1          
1 31598U 07023A   26050.54382881  .00003734  00000+0  33490-3 0  9998
2 31598  97.8865 241.4322 0001460  90.7630 269.3758 14.96386399 12196
COSMOS 2428             
1 31792U 07029A   26050.48195384  .00000194  00000+0  12970-3 0  9990
2 31792  70.9399 241.5628 0008038 296.9594  63.0706 14.12939550961526
SL-16 R/B               
1 31793U 07029B   26050.45853536 -.00000048  00000+0  18280-6 0  9990
2 31793  70.9746 210.7052 0002388 281.6253 110.0867 14.14836666962794
KORONAS-FOTON           
1 33504U 09003A   26050.08801562  .00011711  00000+0  26608-3 0  9995
2 33504  82.4305 295.2105 0009540 216.9174 143.1417 15.42820823942877
CZ-2C R/B               
1 37731U 11030B   26050.44942414  .00001482  00000+0  19277-3 0  9994
2 37731  97.8516   8.0833 0053930  50.6942  62.5618 14.81145108787392
H-2A R/B                
1 38341U 12025E   26050.39072264  .00003899  00000+0  35566-3 0  9991
2 38341  98.4709  15.9799 0045204  14.8609 345.3926 14.95000391745483
SHIJIAN-16 (SJ-16)      
1 39358U 13057A   26050.52794706  .00000805  00000+0  81519-4 0  9997
2 39358  74.9701 219.4671 0016294 158.5741 201.6133 14.92265606668794
SL-4 R/B                
1 39679U 14021B   26050.44522838  .00013389  00000+0  30213-3 0  9996
2 39679  51.6064  66.2379 0098810  36.4555 324.3103 15.38532899653468
ALOS-2                  
1 39766U 14029A   26050.52565889  .00000259  00000+0  41619-4 0  9998
2 39766  97.9211 149.3851 0001598 101.1744 258.9647 14.79465052634180
YAOGAN-29               
1 41038U 15069A   26050.50938660  .00001123  00000+0  14497-3 0  9991
2 41038  98.0159  78.8884 0002792  66.3378 293.8128 14.82976400553182
ASTRO-H (HITOMI)        
1 41337U 16012A   26050.45500030  .00003003  00000+0  17516-3 0  9996
2 41337  30.9991 114.2063 0009859 149.7588 210.3620 15.09865282549470
HXMT (HUIYAN)           
1 42758U 17034A   26050.54323668  .00005224  00000+0  26668-3 0  9994
2 42758  43.0141 117.5410 0030660 121.1281 239.2581 15.17223603479786
CZ-2C R/B               
1 43521U 18054D   26050.42142919  .00708804  24942-3  86639-3 0  9994
2 43521  35.1271  67.0775 0011436 135.6943 224.4717 16.06843090425964
SAOCOM 1A               
1 43641U 18076A   26050.53266208  .00000147  00000+0  25002-4 0  9999
2 43641  97.8870 238.9618 0001292  80.7604 279.3756 14.82145580398675
H-2A R/B                
1 43682U 18084L   26050.48546016  .00018457  00000+0  45152-3 0  9995
2 43682  98.8743 263.9944 0026330  86.4461 273.9792 15.40513166402977
SAOCOM 1B               
1 46265U 20059A   26050.49640428  .00000517  00000+0  71533-4 0  9994
2 46265  97.8870 238.0243 0001497  84.7144 275.4240 14.82151985296055
CSS (TIANHE)            
1 48274U 21035A   26050.21688436  .00024817  00000+0  30290-3 0  9995
2 48274  41.4677 320.4937 0004452 142.8604 217.2543 15.59868728274729
COSMOS 2550             
1 48865U 21056A   26050.12879469 -.00000074  00000+0  35940-5 0  9991
2 48865  67.1418  97.0767 0008400 269.9488  90.0704 15.33830894260613
CZ-2C R/B               
1 52794U 22058K   26050.37370935  .00029914  00000+0  46038-3 0  9992
2 52794  50.1886  52.4076 0042127 122.8075 237.6963 15.52887151207280
CZ-2C R/B               
1 54039U 22132E   26050.48613796  .00038629  00000+0  47014-3 0  9994
2 54039  97.2959  53.2755 0019931 150.5977 209.6406 15.60196667187536
GSLV R/B                
1 54149U 22138AN  26050.40143663  .00003575  00000+0  31012-3 0  9998
2 54149  87.3879 172.4815 0020353 212.7150 147.2823 14.96627442181198
XRISM                   
1 57800U 23137A   26050.34680993  .00005086  00000+0  28918-3 0  9990
2 57800  31.0030  42.2797 0008309 216.4510 143.5563 15.11260329135016
ACS3                    
1 59588U 24077B   26050.41924458  .00017463  00000+0  14320-1 0  9996
2 59588  97.2173 355.6395 0048818 129.8178 230.7297 13.88799682 91660
SZ-21 MODULE            
1 66515U 25246C   26050.09062311  .00030016  00000+0  27526-3 0  9991
2 66515  41.4761 317.7232 0001783 298.3543  61.7118 15.67079513 15156
